OBJECT_NAME,OBJECT_ID,EPOCH,MEAN_MOTION,ECCENTRICITY,INCLINATION,RA_OF_ASC_NODE,ARG_OF_PERICENTER,MEAN_ANOMALY,NORAD_CAT_ID,ELEMENT_SET_NO,REV_AT_EPOCH,BSTAR,MEAN_MOTION_DOT,MEAN_MOTION_DDOT
STARLINK-3533,2022-016B,2026-03-20T20:45:49.684896,15.08837116,0.00016076,53.2173,278.9629,79.9147,280.2026,51715.0,999.0,22624.0,0.00011871893,1.602e-05,0.0
STARLINK-3543,2022-016C,2026-03-21T06:27:21.099744,15.08840281,0.00012774,53.2171,277.1417,93.9969,266.1169,51716.0,999.0,22517.0,0.00012102352,1.639e-05,0.0
STARLINK-3445,2022-016D,2026-03-21T06:34:01.320960,15.08853224,0.00016223,53.2178,277.207,103.4158,256.7015,51717.0,999.0,22517.0,0.00010561886,1.394e-05,0.0
STARLINK-3546,2022-016E,2026-03-20T19:31:30.547200,15.15830868,0.00013549,53.2121,275.9717,351.11,8.9871,51718.0,999.0,22627.0,0.0017372533,0.0003345,0.0
STARLINK-3540,2022-016F,2026-03-20T22:25:06.812832,15.08845957,0.00015586,53.2167,278.7214,87.1436,272.9735,51719.0,999.0,22512.0,4.2227724e-05,3.84e-06,0.0
STARLINK-3526,2022-016G,2026-03-21T05:51:36.749376,15.0884344,0.00013334,53.2179,277.2213,92.192,267.9225,51720.0,999.0,22516.0,8.306382e-06,-1.56e-06,0.0
STARLINK-3524,2022-016H,2026-03-20T22:10:35.728032,15.0883438,0.00013926,53.2169,278.6983,90.3763,269.7389,51721.0,999.0,22512.0,4.9228469e-05,4.96e-06,0.0
STARLINK-3535,2022-016J,2026-03-21T05:44:56.184288,15.08854508,0.00011066,53.2166,277.2722,94.3937,265.7182,51722.0,999.0,22516.0,0.00013534305,1.868e-05,0.0
STARLINK-3529,2022-016L,2026-03-19T23:22:02.291232,15.08839716,0.00015617,53.2179,282.9542,106.731,253.3854,51724.0,999.0,22497.0,8.7351608e-05,1.102e-05,0.0
STARLINK-3522,2022-016M,2026-03-21T05:50:14.413632,15.08837286,0.00016572,53.2168,277.2525,75.4627,284.6549,51725.0,999.0,22516.0,-1.0139739e-05,-4.49e-06,0.0
STARLINK-3527,2022-016N,2026-03-21T04:56:16.775808,15.09040635,0.00012369,53.2156,267.4061,104.1461,255.9669,51726.0,999.0,22530.0,0.00026896475,4.018e-05,0.0
STARLINK-3532,2022-016P,2026-03-21T05:39:38.227104,15.08841242,0.00014473,53.2175,277.2869,91.9634,268.1524,51727.0,999.0,22516.0,-2.1331348e-05,-6.27e-06,0.0
STARLINK-3523,2022-016R,2026-03-21T05:03:52.126272,15.08837401,0.00013258,53.2161,267.4,87.5419,272.5725,51729.0,999.0,22530.0,0.00012260891,1.664e-05,0.0
STARLINK-3514,2022-016T,2026-03-20T20:56:20.448960,15.08836715,0.00013823,53.2168,268.9202,92.4279,267.6871,51731.0,999.0,22525.0,3.045181e-06,-2.39e-06,0.0
STARLINK-3518,2022-016U,2026-03-20T22:10:31.947168,15.08840959,0.0001721,53.2167,268.6906,94.834,265.2849,51732.0,999.0,22640.0,2.5707654e-05,1.21e-06,0.0
STARLINK-3525,2022-016V,2026-03-20T22:22:30.105696,15.08848522,0.00013988,53.2171,268.6625,89.9241,270.1911,51733.0,999.0,22526.0,0.0001614503,2.283e-05,0.0
STARLINK-3450,2022-016W,2026-03-21T05:51:33.679584,15.08842055,0.00013742,53.2163,267.2516,90.3731,269.7419,51734.0,999.0,22530.0,6.2247312e-05,7.03e-06,0.0
STARLINK-3517,2022-016X,2026-03-21T06:02:09.104928,15.0884625,0.00013235,53.2168,267.2199,87.2944,272.82,51735.0,999.0,22531.0,6.5393247e-05,7.53e-06,0.0
STARLINK-3447,2022-016Y,2026-03-21T05:52:57.193824,15.08848172,0.00013637,53.2165,267.3349,92.5381,267.5767,51736.0,999.0,22530.0,0.00013274608,1.826e-05,0.0
STARLINK-3509,2022-016Z,2026-03-20T21:59:56.026752,15.08848844,0.00013181,53.2169,268.7233,89.4816,270.6327,51737.0,999.0,22525.0,3.270273e-05,2.33e-06,0.0
STARLINK-3515,2022-016AA,2026-03-21T05:30:22.508352,15.08833654,0.00014544,53.2173,267.3157,90.4065,269.7094,51738.0,999.0,22530.0,3.4218086e-05,2.57e-06,0.0
STARLINK-3516,2022-016AB,2026-03-21T05:46:15.643776,15.08840814,0.0001372,53.2166,267.2685,90.9243,269.1906,51739.0,999.0,22530.0,4.0956931e-05,3.64e-06,0.0
STARLINK-3500,2022-016AC,2026-03-20T22:58:14.110464,15.08839115,0.000138,53.2187,268.5398,88.5984,271.5166,51740.0,999.0,22526.0,-4.4483222e-05,-9.96e-06,0.0
STARLINK-3520,2022-016AD,2026-03-20T23:15:30.060288,15.08838292,0.00012458,53.2165,268.496,90.8036,269.3099,51741.0,999.0,22526.0,2.3936081e-05,9.3e-07,0.0
STARLINK-3521,2022-016AE,2026-03-21T05:41:00.803040,15.08824513,0.00014804,53.2171,267.4769,88.6261,271.49,51742.0,999.0,22530.0,7.6893932e-05,9.36e-06,0.0
STARLINK-3512,2022-016AF,2026-03-20T18:34:34.298976,15.08839996,0.0001369,53.2166,259.2861,92.5476,267.5673,51743.0,999.0,22537.0,7.7517e-05,9.46e-06,0.0
STARLINK-3452,2022-016AG,2026-03-21T05:09:10.365120,15.08841746,0.00013642,53.2167,267.4119,83.2448,276.8699,51744.0,999.0,22530.0,0.00011328648,1.516e-05,0.0
STARLINK-3449,2022-016AH,2026-03-21T05:25:05.412576,15.08842696,0.00013789,53.2172,267.3322,86.6413,273.4737,51745.0,999.0,22530.0,9.7108315e-05,1.258e-05,0.0
STARLINK-3502,2022-016AJ,2026-03-20T21:52:02.353440,15.08837933,0.00013368,53.2172,258.7577,92.9181,267.1964,51746.0,999.0,22539.0,-2.48449e-06,-3.27e-06,0.0
STARLINK-3446,2022-016AK,2026-03-21T05:15:51.653376,15.08844759,0.00011735,53.2163,267.4109,94.2208,265.8918,51747.0,999.0,22530.0,-2.535826e-06,-3.28e-06,0.0
STARLINK-3501,2022-016AL,2026-03-20T18:29:18.185568,15.08834388,0.00012811,53.2163,259.3798,95.9797,264.1341,51748.0,999.0,22537.0,2.8183343e-05,1.61e-06,0.0
STARLINK-3451,2022-016AM,2026-03-20T12:48:50.913504,15.08837086,0.00014209,53.2167,270.6236,94.4445,265.671,51749.0,999.0,22519.0,8.8419393e-05,1.119e-05,0.0
STARLINK-3505,2022-016AN,2026-03-21T05:27:45.459072,15.08843478,0.00013774,53.2159,257.3307,144.0306,216.0779,51750.0,999.0,22544.0,7.8461956e-05,9.61e-06,0.0
STARLINK-3506,2022-016AP,2026-03-20T21:46:45.506496,15.08844544,0.00017685,53.2167,258.7737,99.2407,260.8785,51751.0,999.0,22539.0,8.795563e-05,1.112e-05,0.0
STARLINK-3511,2022-016AQ,2026-03-21T05:11:50.740800,15.08838716,0.00010892,53.2183,257.3065,89.3137,270.798,51752.0,999.0,22544.0,2.7358218e-05,1.48e-06,0.0
STARLINK-3507,2022-016AR,2026-03-20T21:36:08.258976,15.0883769,0.00012305,53.2163,258.8063,97.5031,262.6101,51753.0,999.0,22539.0,4.0090791e-05,3.5e-06,0.0
STARLINK-3457,2022-016AS,2026-03-21T04:38:39.432480,15.08837336,0.00014005,53.2173,257.2361,87.9447,272.1705,51754.0,999.0,22544.0,3.952943e-05,3.41e-06,0.0
STARLINK-3460,2022-016AT,2026-03-20T21:18:49.119264,15.0888392,0.00012708,53.2166,258.85,100.9153,259.1982,51755.0,999.0,22539.0,0.00037201464,5.645e-05,0.0
STARLINK-3513,2022-016AU,2026-03-21T04:33:23.764896,15.08839235,0.00015414,53.2172,257.4956,88.7424,271.3744,51756.0,999.0,22544.0,4.2587413e-05,3.9e-06,0.0
STARLINK-3459,2022-016AV,2026-03-21T04:29:28.656672,15.08838407,0.00012218,53.2157,257.5178,85.1328,274.9803,51757.0,999.0,22544.0,3.283602e-05,2.35e-06,0.0
STARLINK-3458,2022-016AW,2026-03-21T04:17:29.515776,15.08847658,0.00012281,53.2149,257.4974,91.9426,268.1707,51758.0,999.0,22658.0,6.54144e-06,-1.84e-06,0.0
STARLINK-3456,2022-016AX,2026-03-20T18:50:29.762016,15.08851551,0.00021428,53.2161,259.3128,81.2557,278.8678,51759.0,999.0,22538.0,-3.294399e-06,-3.41e-06,0.0
STARLINK-3622,2022-017A,2026-03-21T06:41:53.164320,15.08894811,0.00014974,53.2179,287.0949,108.8406,251.2749,51768.0,999.0,22579.0,-0.00094088515,-0.00015253,0.0
STARLINK-3621,2022-017B,2026-03-21T06:31:18.501888,15.08829675,0.00013986,53.2188,287.1263,83.1863,276.9288,51769.0,999.0,22435.0,-5.25588e-05,-1.124e-05,0.0
STARLINK-3612,2022-017C,2026-03-21T06:36:37.213344,15.08824947,0.00015888,53.2177,287.1109,86.0455,274.0719,51770.0,999.0,22436.0,7.6364724e-05,9.27e-06,0.0
STARLINK-3614,2022-017D,2026-03-20T14:32:08.998944,15.08845901,0.000146,53.2165,290.1067,88.1999,271.916,51771.0,999.0,22425.0,-5.6206e-06,-3.77e-06,0.0
STARLINK-3623,2022-017E,2026-03-20T00:03:04.690368,15.08839363,0.000141,53.2171,292.8267,89.8501,270.2653,51772.0,999.0,22415.0,6.5921e-06,-1.83e-06,0.0
STARLINK-3624,2022-017F,2026-03-20T20:49:45.603552,15.08840304,0.00013224,53.217,288.9105,86.8582,273.2562,51773.0,999.0,22429.0,4.0305733e-05,3.54e-06,0.0
STARLINK-3629,2022-017G,2026-03-20T20:32:28.545216,15.08842756,0.00011273,53.2175,288.9925,100.2307,259.8812,51774.0,999.0,22425.0,0.00053809817,8.287e-05,0.0
STARLINK-3620,2022-017H,2026-03-20T20:48:23.561568,15.08836187,0.00012995,53.217,288.9423,88.7019,271.4122,51775.0,999.0,22429.0,2.9692274e-05,1.85e-06,0.0
STARLINK-3608,2022-017J,2026-03-20T07:44:08.174112,15.0882439,0.0001034,53.2166,291.3921,90.8366,269.2744,51776.0,999.0,22417.0,8.6527532e-05,1.089e-05,0.0
STARLINK-3625,2022-017K,2026-03-20T20:33:54.048384,15.08805258,0.00017647,53.2186,288.9622,69.2603,290.8578,51777.0,999.0,22428.0,-0.00012576329,-2.287e-05,0.0
STARLINK-3615,2022-017L,2026-03-20T20:39:07.072992,15.08826931,0.00014744,53.2175,278.8492,93.6339,266.4822,51778.0,999.0,22424.0,-2.9661651e-05,-7.6e-06,0.0
STARLINK-3611,2022-017M,2026-03-20T07:45:29.386656,15.08846322,0.00014969,53.2173,291.4332,126.8179,233.2951,51779.0,999.0,22417.0,-0.00022074693,-3.8e-05,0.0
STARLINK-3617,2022-017N,2026-03-19T23:25:59.495520,15.08834139,0.00014678,53.2177,292.9341,85.8352,274.2808,51780.0,999.0,22397.0,-3.012837e-06,-3.36e-06,0.0
STARLINK-3580,2022-017P,2026-03-20T07:28:12.926208,15.08830718,0.00015249,53.2182,291.402,82.8685,277.248,51781.0,999.0,22402.0,-0.00021411469,-3.693e-05,0.0
STARLINK-3616,2022-017Q,2026-03-20T21:03:00.103392,15.08831609,0.00012775,53.2174,299.0538,85.0241,275.0897,51782.0,999.0,22387.0,6.487641e-05,7.45e-06,0.0
STARLINK-3628,2022-017R,2026-03-20T07:34:53.175072,15.08867001,0.00010531,53.2172,291.4687,96.1889,263.9223,51783.0,999.0,22402.0,0.00028620816,4.273e-05,0.0
STARLINK-3632,2022-017S,2026-03-20T22:11:51.591552,15.08856665,0.00015339,53.2176,298.6851,80.9447,279.1719,51784.0,999.0,22397.0,-0.00034518188,-5.78e-05,0.0
STARLINK-3646,2022-017T,2026-03-20T13:40:32.260512,15.08838201,0.00015171,53.2183,290.2515,90.6978,269.4188,51785.0,999.0,22406.0,2.4462085e-05,1.01e-06,0.0
STARLINK-3638,2022-017U,2026-03-20T22:01:15.279744,15.08832743,0.00014619,53.217,298.7179,77.905,282.2106,51786.0,999.0,22397.0,-0.00013522885,-2.439e-05,0.0
